[{"OBJECT_NAME":"IRIDIUM 151","OBJECT_ID":"2017-083E","EPOCH":"2026-04-05T04:19:15.055968","MEAN_MOTION":14.34216886,"ECCENTRICITY":0.00022434,"INCLINATION":86.4016,"RA_OF_ASC_NODE":352.5792,"ARG_OF_PERICENTER":84.9448,"MEAN_ANOMALY":275.2004,"EPHEMERIS_TYPE":0,"CLASSIFICATION_TYPE":"U","NORAD_CAT_ID":43074,"ELEMENT_SET_NO":999,"REV_AT_EPOCH":43367,"BSTAR":3.6623509e-5,"MEAN_MOTION_DOT":1.22e-6,"MEAN_MOTION_DDOT":0},{"OBJECT_NAME":"IRIDIUM 134","OBJECT_ID":"2017-083F","EPOCH":"2026-04-05T05:14:03.168672","MEAN_MOTION":14.34218316,"ECCENTRICITY":0.00022415,"INCLINATION":86.4017,"RA_OF_ASC_NODE":352.5701,"ARG_OF_PERICENTER":88.9093,"MEAN_ANOMALY":271.2359,"EPHEMERIS_TYPE":0,"CLASSIFICATION_TYPE":"U","NORAD_CAT_ID":43075,"ELEMENT_SET_NO":999,"REV_AT_EPOCH":43364,"BSTAR":6.4580344e-5,"MEAN_MOTION_DOT":2.01e-6,"MEAN_MOTION_DDOT":0},{"OBJECT_NAME":"IRIDIUM 137","OBJECT_ID":"2017-083G","EPOCH":"2026-04-05T05:32:19.215744","MEAN_MOTION":14.34221635,"ECCENTRICITY":0.00025955,"INCLINATION":86.402,"RA_OF_ASC_NODE":352.6561,"ARG_OF_PERICENTER":80.2964,"MEAN_ANOMALY":279.8525,"EPHEMERIS_TYPE":0,"CLASSIFICATION_TYPE":"U","NORAD_CAT_ID":43076,"ELEMENT_SET_NO":999,"REV_AT_EPOCH":43371,"BSTAR":0.00013281209,"MEAN_MOTION_DOT":3.92e-6,"MEAN_MOTION_DDOT":0},{"OBJECT_NAME":"IRIDIUM 141","OBJECT_ID":"2017-083H","EPOCH":"2026-04-05T05:23:11.297184","MEAN_MOTION":14.34219819,"ECCENTRICITY":0.00020712,"INCLINATION":86.4015,"RA_OF_ASC_NODE":352.4935,"ARG_OF_PERICENTER":83.8567,"MEAN_ANOMALY":276.2865,"EPHEMERIS_TYPE":0,"CLASSIFICATION_TYPE":"U","NORAD_CAT_ID":43077,"ELEMENT_SET_NO":999,"REV_AT_EPOCH":43371,"BSTAR":0.00012852917,"MEAN_MOTION_DOT":3.8e-6,"MEAN_MOTION_DDOT":0},{"OBJECT_NAME":"IRIDIUM 153","OBJECT_ID":"2017-083J","EPOCH":"2026-04-05T02:33:51.321600","MEAN_MOTION":14.34218103,"ECCENTRICITY":0.00018448,"INCLINATION":86.3966,"RA_OF_ASC_NODE":321.0463,"ARG_OF_PERICENTER":87.2333,"MEAN_ANOMALY":272.9074,"EPHEMERIS_TYPE":0,"CLASSIFICATION_TYPE":"U","NORAD_CAT_ID":43078,"ELEMENT_SET_NO":999,"REV_AT_EPOCH":43480,"BSTAR":3.870356e-5,"MEAN_MOTION_DOT":1.28e-6,"MEAN_MOTION_DDOT":0},{"OBJECT_NAME":"IRIDIUM 131","OBJECT_ID":"2017-083K","EPOCH":"2026-04-05T03:24:27.116064","MEAN_MOTION":14.34218619,"ECCENTRICITY":0.00021748,"INCLINATION":86.4021,"RA_OF_ASC_NODE":352.7089,"ARG_OF_PERICENTER":82.9511,"MEAN_ANOMALY":277.1932,"EPHEMERIS_TYPE":0,"CLASSIFICATION_TYPE":"U","NORAD_CAT_ID":43079,"ELEMENT_SET_NO":999,"REV_AT_EPOCH":43363,"BSTAR":6.8482017e-5,"MEAN_MOTION_DOT":2.12e-6,"MEAN_MOTION_DDOT":0},{"OBJECT_NAME":"IRIDIUM 144","OBJECT_ID":"2018-030A","EPOCH":"2026-04-05T02:42:59.370624","MEAN_MOTION":14.34217648,"ECCENTRICITY":0.00022605,"INCLINATION":86.3963,"RA_OF_ASC_NODE":320.9745,"ARG_OF_PERICENTER":88.0694,"MEAN_ANOMALY":272.0761,"EPHEMERIS_TYPE":0,"CLASSIFICATION_TYPE":"U","NORAD_CAT_ID":43249,"ELEMENT_SET_NO":999,"REV_AT_EPOCH":41966,"BSTAR":4.6578951e-5,"MEAN_MOTION_DOT":1.5e-6,"MEAN_MOTION_DDOT":0},{"OBJECT_NAME":"IRIDIUM 149","OBJECT_ID":"2018-030B","EPOCH":"2026-04-05T02:52:07.361760","MEAN_MOTION":14.34217597,"ECCENTRICITY":0.00020044,"INCLINATION":86.3962,"RA_OF_ASC_NODE":320.9398,"ARG_OF_PERICENTER":85.5759,"MEAN_ANOMALY":274.5666,"EPHEMERIS_TYPE":0,"CLASSIFICATION_TYPE":"U","NORAD_CAT_ID":43250,"ELEMENT_SET_NO":999,"REV_AT_EPOCH":41968,"BSTAR":2.2102113e-5,"MEAN_MOTION_DOT":8.2e-7,"MEAN_MOTION_DDOT":0},{"OBJECT_NAME":"IRIDIUM 157","OBJECT_ID":"2018-030C","EPOCH":"2026-04-05T03:19:31.211616","MEAN_MOTION":14.34219419,"ECCENTRICITY":0.00021005,"INCLINATION":86.3963,"RA_OF_ASC_NODE":320.9833,"ARG_OF_PERICENTER":86.9992,"MEAN_ANOMALY":273.1445,"EPHEMERIS_TYPE":0,"CLASSIFICATION_TYPE":"U","NORAD_CAT_ID":43251,"ELEMENT_SET_NO":999,"REV_AT_EPOCH":41966,"BSTAR":9.5317813e-5,"MEAN_MOTION_DOT":2.87e-6,"MEAN_MOTION_DDOT":0},{"OBJECT_NAME":"IRIDIUM 140","OBJECT_ID":"2018-030D","EPOCH":"2026-04-05T03:46:55.367328","MEAN_MOTION":14.34217642,"ECCENTRICITY":0.00020145,"INCLINATION":86.3962,"RA_OF_ASC_NODE":320.9878,"ARG_OF_PERICENTER":88.7619,"MEAN_ANOMALY":271.3808,"EPHEMERIS_TYPE":0,"CLASSIFICATION_TYPE":"U","NORAD_CAT_ID":43252,"ELEMENT_SET_NO":999,"REV_AT_EPOCH":41972,"BSTAR":-2.407552e-5,"MEAN_MOTION_DOT":-4.8e-7,"MEAN_MOTION_DDOT":0},{"OBJECT_NAME":"IRIDIUM 145","OBJECT_ID":"2018-030E","EPOCH":"2026-04-05T03:28:39.372960","MEAN_MOTION":14.34218761,"ECCENTRICITY":0.00024748,"INCLINATION":86.3963,"RA_OF_ASC_NODE":320.9658,"ARG_OF_PERICENTER":90.4902,"MEAN_ANOMALY":269.6577,"EPHEMERIS_TYPE":0,"CLASSIFICATION_TYPE":"U","NORAD_CAT_ID":43253,"ELEMENT_SET_NO":999,"REV_AT_EPOCH":41965,"BSTAR":6.1894443e-5,"MEAN_MOTION_DOT":1.93e-6,"MEAN_MOTION_DDOT":0},{"OBJECT_NAME":"IRIDIUM 146","OBJECT_ID":"2018-030F","EPOCH":"2026-04-05T03:01:15.345984","MEAN_MOTION":14.3421864,"ECCENTRICITY":0.00022533,"INCLINATION":86.3963,"RA_OF_ASC_NODE":320.9862,"ARG_OF_PERICENTER":87.1543,"MEAN_ANOMALY":272.9911,"EPHEMERIS_TYPE":0,"CLASSIFICATION_TYPE":"U","NORAD_CAT_ID":43254,"ELEMENT_SET_NO":999,"REV_AT_EPOCH":41966,"BSTAR":6.3510838e-5,"MEAN_MOTION_DOT":1.98e-6,"MEAN_MOTION_DDOT":0},{"OBJECT_NAME":"IRIDIUM 148","OBJECT_ID":"2018-030G","EPOCH":"2026-04-05T03:56:02.625792","MEAN_MOTION":14.34221837,"ECCENTRICITY":0.00021461,"INCLINATION":86.3965,"RA_OF_ASC_NODE":321.0124,"ARG_OF_PERICENTER":85.5651,"MEAN_ANOMALY":274.579,"EPHEMERIS_TYPE":0,"CLASSIFICATION_TYPE":"U","NORAD_CAT_ID":43255,"ELEMENT_SET_NO":999,"REV_AT_EPOCH":41970,"BSTAR":0.00011275994,"MEAN_MOTION_DOT":3.36e-6,"MEAN_MOTION_DDOT":0},{"OBJECT_NAME":"IRIDIUM 142","OBJECT_ID":"2018-030H","EPOCH":"2026-04-05T03:10:23.341440","MEAN_MOTION":14.34218631,"ECCENTRICITY":0.00023855,"INCLINATION":86.396,"RA_OF_ASC_NODE":320.9172,"ARG_OF_PERICENTER":89.7712,"MEAN_ANOMALY":270.3757,"EPHEMERIS_TYPE":0,"CLASSIFICATION_TYPE":"U","NORAD_CAT_ID":43256,"ELEMENT_SET_NO":999,"REV_AT_EPOCH":41966,"BSTAR":5.2256384e-5,"MEAN_MOTION_DOT":1.66e-6,"MEAN_MOTION_DDOT":0},{"OBJECT_NAME":"IRIDIUM 150","OBJECT_ID":"2018-030J","EPOCH":"2026-04-05T02:24:43.372800","MEAN_MOTION":14.34218108,"ECCENTRICITY":0.00021591,"INCLINATION":86.3966,"RA_OF_ASC_NODE":321.0445,"ARG_OF_PERICENTER":88.1079,"MEAN_ANOMALY":272.0364,"EPHEMERIS_TYPE":0,"CLASSIFICATION_TYPE":"U","NORAD_CAT_ID":43257,"ELEMENT_SET_NO":999,"REV_AT_EPOCH":41968,"BSTAR":3.41341e-5,"MEAN_MOTION_DOT":1.15e-6,"MEAN_MOTION_DDOT":0},{"OBJECT_NAME":"IRIDIUM 143","OBJECT_ID":"2018-030K","EPOCH":"2026-04-05T03:37:47.282016","MEAN_MOTION":14.34217187,"ECCENTRICITY":0.00022772,"INCLINATION":86.3968,"RA_OF_ASC_NODE":321.1129,"ARG_OF_PERICENTER":89.0535,"MEAN_ANOMALY":271.0922,"EPHEMERIS_TYPE":0,"CLASSIFICATION_TYPE":"U","NORAD_CAT_ID":43258,"ELEMENT_SET_NO":999,"REV_AT_EPOCH":41962,"BSTAR":0.00010130697,"MEAN_MOTION_DOT":3.03e-6,"MEAN_MOTION_DDOT":0},{"OBJECT_NAME":"IRIDIUM 161","OBJECT_ID":"2018-047C","EPOCH":"2026-04-05T07:15:16.965216","MEAN_MOTION":14.43278224,"ECCENTRICITY":0.00021466,"INCLINATION":86.4454,"RA_OF_ASC_NODE":118.9565,"ARG_OF_PERICENTER":84.9949,"MEAN_ANOMALY":275.1497,"EPHEMERIS_TYPE":0,"CLASSIFICATION_TYPE":"U","NORAD_CAT_ID":43478,"ELEMENT_SET_NO":999,"REV_AT_EPOCH":41462,"BSTAR":5.2623966e-5,"MEAN_MOTION_DOT":1.97e-6,"MEAN_MOTION_DDOT":0}]
