IRIDIUM 151             
1 43074U 17083E   26095.18003537  .00000122  00000+0  36624-4 0  9995
2 43074  86.4016 352.5792 0002243  84.9448 275.2004 14.34216886433672
IRIDIUM 134             
1 43075U 17083F   26095.21809223  .00000201  00000+0  64580-4 0  9996
2 43075  86.4017 352.5701 0002241  88.9093 271.2359 14.34218316433648
IRIDIUM 137             
1 43076U 17083G   26095.23077796  .00000392  00000+0  13281-3 0  9993
2 43076  86.4020 352.6561 0002595  80.2964 279.8525 14.34221635433717
IRIDIUM 141             
1 43077U 17083H   26095.22443631  .00000380  00000+0  12853-3 0  9999
2 43077  86.4015 352.4935 0002071  83.8567 276.2865 14.34219819433711
IRIDIUM 153             
1 43078U 17083J   26095.10684400  .00000128  00000+0  38704-4 0  9992
2 43078  86.3966 321.0463 0001844  87.2333 272.9074 14.34218103434801
IRIDIUM 131             
1 43079U 17083K   26095.14198051  .00000212  00000+0  68482-4 0  9999
2 43079  86.4021 352.7089 0002174  82.9511 277.1932 14.34218619433639
IRIDIUM 144             
1 43249U 18030A   26095.11318716  .00000150  00000+0  46579-4 0  9994
2 43249  86.3963 320.9745 0002260  88.0694 272.0761 14.34217648419665
IRIDIUM 149             
1 43250U 18030B   26095.11952965  .00000082  00000+0  22102-4 0  9996
2 43250  86.3962 320.9398 0002004  85.5759 274.5666 14.34217597419686
IRIDIUM 157             
1 43251U 18030C   26095.13855569  .00000287  00000+0  95318-4 0  9997
2 43251  86.3963 320.9833 0002100  86.9992 273.1445 14.34219419419666
IRIDIUM 140             
1 43252U 18030D   26095.15758527 -.00000048  00000+0 -24076-4 0  9996
2 43252  86.3962 320.9878 0002014  88.7619 271.3808 14.34217642419721
IRIDIUM 145             
1 43253U 18030E   26095.14490015  .00000193  00000+0  61894-4 0  9999
2 43253  86.3963 320.9658 0002474  90.4902 269.6577 14.34218761419652
IRIDIUM 146             
1 43254U 18030F   26095.12587206  .00000198  00000+0  63511-4 0  9990
2 43254  86.3963 320.9862 0002253  87.1543 272.9911 14.34218640419665
IRIDIUM 148             
1 43255U 18030G   26095.16391928  .00000336  00000+0  11276-3 0  9993
2 43255  86.3965 321.0124 0002146  85.5651 274.5790 14.34221837419704
IRIDIUM 142             
1 43256U 18030H   26095.13221460  .00000166  00000+0  52256-4 0  9999
2 43256  86.3960 320.9172 0002385  89.7712 270.3757 14.34218631419660
IRIDIUM 150             
1 43257U 18030J   26095.10050200  .00000115  00000+0  34134-4 0  9998
2 43257  86.3966 321.0445 0002159  88.1079 272.0364 14.34218108419684
IRIDIUM 143             
1 43258U 18030K   26095.15124169  .00000303  00000+0  10131-3 0  9999
2 43258  86.3968 321.1129 0002277  89.0535 271.0922 14.34217187419624
IRIDIUM 161             
1 43478U 18047C   26095.30227969  .00000197  00000+0  52624-4 0  9995
2 43478  86.4454 118.9565 0002146  84.9949 275.1497 14.43278224414629
